{"type": "FeatureCollection", "features": [ {"type": "Feature", "properties": {"norad_id": 66949, "name": "STARLINK-36096", "group": "last-30-days", "lat": 1.0911425955496554, "lon": -12.368579067895975, "alt_km": 388.72885061512716, "timestamp": "2025-12-25T11:37:43.135385+00:00", "meta": {"OBJECT_NAME": "STARLINK-36096", "OBJECT_ID": "2025-286AA", "EPOCH": "2025-12-25T04:00:01.998720", "MEAN_MOTION": 15.61304276, "ECCENTRICITY": 0.0001058, "INCLINATION": 53.1598, "RA_OF_ASC_NODE": 348.3593, "ARG_OF_PERICENTER": 82.7847, "MEAN_ANOMALY": 292.0234, "EPHEMERIS_TYPE": 0, "CLASSIFICATION_TYPE": "U", "NORAD_CAT_ID": 66949, "ELEMENT_SET_NO": 999, "REV_AT_EPOCH": 398, "BSTAR": -0.0266, "MEAN_MOTION_DOT": -0.02019593, "MEAN_MOTION_DDOT": 0}, "tle": {"line1": "1 66949U 25286AA  25359.16668980 -.02019593  00000+0 -26600-1 0  9990", "line2": "2 66949  53.1598 348.3593 0001058  82.7847 292.0234 15.61304276  3989"}}, "geometry": {"type": "Point", "coordinates": [-12.368579067895975, 1.0911425955496554]}}, {"type": "Feature", "properties": {"norad_id": 66950, "name": "STARLINK-36111", "group": "last-30-days", "lat": 4.1581921225636815, "lon": -10.070805483645774, "alt_km": 388.25722400230825, "timestamp": "2025-12-25T11:37:43.135397+00:00", "meta": {"OBJECT_NAME": "STARLINK-36111", "OBJECT_ID": "2025-286AB", "EPOCH": "2025-12-25T04:00:01.998720", "MEAN_MOTION": 15.61306559, "ECCENTRICITY": 0.0001014, "INCLINATION": 53.1597, "RA_OF_ASC_NODE": 348.3507, "ARG_OF_PERICENTER": 81.7981, "MEAN_ANOMALY": 296.8424, "EPHEMERIS_TYPE": 0, "CLASSIFICATION_TYPE": "U", "NORAD_CAT_ID": 66950, "ELEMENT_SET_NO": 999, "REV_AT_EPOCH": 398, "BSTAR": -0.026625, "MEAN_MOTION_DOT": -0.02021375, "MEAN_MOTION_DDOT": 0}, "tle": {"line1": "1 66950U 25286AB  25359.16668980 -.02021375  00000+0 -26625-1 0  9990", "line2": "2 66950  53.1597 348.3507 0001014  81.7981 296.8424 15.61306559  3984"}}, "geometry": {"type": "Point", "coordinates": [-10.070805483645774, 4.1581921225636815]}}, {"type": "Feature", "properties": {"norad_id": 66951, "name": "STARLINK-35999", "group": "last-30-days", "lat": 5.691335436185173, "lon": -8.914493971460166, "alt_km": 388.06247658215307, "timestamp": "2025-12-25T11:37:43.135408+00:00", "meta": {"OBJECT_NAME": "STARLINK-35999", "OBJECT_ID": "2025-286AC", "EPOCH": "2025-12-25T04:00:01.998720", "MEAN_MOTION": 15.61302752, "ECCENTRICITY": 9.4e-05, "INCLINATION": 53.1596, "RA_OF_ASC_NODE": 348.3465, "ARG_OF_PERICENTER": 89.8554, "MEAN_ANOMALY": 290.7042, "EPHEMERIS_TYPE": 0, "CLASSIFICATION_TYPE": "U", "NORAD_CAT_ID": 66951, "ELEMENT_SET_NO": 999, "REV_AT_EPOCH": 398, "BSTAR": -0.026494, "MEAN_MOTION_DOT": -0.02012351, "MEAN_MOTION_DDOT": 0}, "tle": {"line1": "1 66951U 25286AC  25359.16668980 -.02012351  00000+0 -26494-1 0  9999", "line2": "2 66951  53.1596 348.3465 0000940  89.8554 290.7042 15.61302752  3989"}}, "geometry": {"type": "Point", "coordinates": [-8.914493971460166, 5.691335436185173]}}, {"type": "Feature", "properties": {"norad_id": 66952, "name": "STARLINK-36122", "group": "last-30-days", "lat": 2.6252107141066823, "lon": -11.221204489452349, "alt_km": 388.52403987330854, "timestamp": "2025-12-25T11:37:43.135419+00:00", "meta": {"OBJECT_NAME": "STARLINK-36122", "OBJECT_ID": "2025-286AD", "EPOCH": "2025-12-25T04:00:01.998720", "MEAN_MOTION": 15.6130206, "ECCENTRICITY": 0.0001014, "INCLINATION": 53.1598, "RA_OF_ASC_NODE": 348.3549, "ARG_OF_PERICENTER": 86.5093, "MEAN_ANOMALY": 290.214, "EPHEMERIS_TYPE": 0, "CLASSIFICATION_TYPE": "U", "NORAD_CAT_ID": 66952, "ELEMENT_SET_NO": 999, "REV_AT_EPOCH": 398, "BSTAR": -0.026459, "MEAN_MOTION_DOT": -0.0201006, "MEAN_MOTION_DDOT": 0}, "tle": {"line1": "1 66952U 25286AD  25359.16668980 -.02010060  00000+0 -26459-1 0  9996", "line2": "2 66952  53.1598 348.3549 0001014  86.5093 290.2140 15.61302060  3986"}}, "geometry": {"type": "Point", "coordinates": [-11.221204489452349, 2.6252107141066823]}}, {"type": "Feature", "properties": {"norad_id": 66953, "name": "HULIANWANG DIGUI-114", "group": "last-30-days", "lat": -63.186960649585025, "lon": 168.4855225747165, "alt_km": 1018.5726939919705, "timestamp": "2025-12-25T11:37:43.135429+00:00", "meta": {"OBJECT_NAME": "HULIANWANG DIGUI-114", "OBJECT_ID": "2025-287A", "EPOCH": "2025-12-20T09:09:14.655168", "MEAN_MOTION": 13.66161866, "ECCENTRICITY": 0.00096738, "INCLINATION": 86.496, "RA_OF_ASC_NODE": 343.3747, "ARG_OF_PERICENTER": 185.0352, "MEAN_ANOMALY": 175.071, "EPHEMERIS_TYPE": 0, "CLASSIFICATION_TYPE": "U", "NORAD_CAT_ID": 66953, "ELEMENT_SET_NO": 999, "REV_AT_EPOCH": 157, "BSTAR": 3.033618e-06, "MEAN_MOTION_DOT": 1.9e-07, "MEAN_MOTION_DDOT": 0}, "tle": {"line1": "1 66953U 25287A   25354.38141962  .00000019  00000+0  30336-5 0  9995", "line2": "2 66953  86.4960 343.3747 0009673 185.0352 175.0710 13.66161866  1572"}}, "geometry": {"type": "Point", "coordinates": [168.4855225747165, -63.186960649585025]}}, {"type": "Feature", "properties": {"norad_id": 66954, "name": "HULIANWANG DIGUI-115", "group": "last-30-days", "lat": -48.700114814010085, "lon": 165.52568397215893, "alt_km": 1031.0223139528925, "timestamp": "2025-12-25T11:37:43.135441+00:00", "meta": {"OBJECT_NAME": "HULIANWANG DIGUI-115", "OBJECT_ID": "2025-287B", "EPOCH": "2025-12-24T22:10:56.489088", "MEAN_MOTION": 13.63539042, "ECCENTRICITY": 0.0003385, "INCLINATION": 86.5036, "RA_OF_ASC_NODE": 341.7372, "ARG_OF_PERICENTER": 109.9724, "MEAN_ANOMALY": 250.1798, "EPHEMERIS_TYPE": 0, "CLASSIFICATION_TYPE": "U", "NORAD_CAT_ID": 66954, "ELEMENT_SET_NO": 999, "REV_AT_EPOCH": 219, "BSTAR": 8.442119e-06, "MEAN_MOTION_DOT": 2.3e-07, "MEAN_MOTION_DDOT": 0}, "tle": {"line1": "1 66954U 25287B   25358.92426492  .00000023  00000+0  84421-5 0  9993", "line2": "2 66954  86.5036 341.7372 0003385 109.9724 250.1798 13.63539042  2198"}}, "geometry": {"type": "Point", "coordinates": [165.52568397215893, -48.700114814010085]}}, {"type": "Feature", "properties": {"norad_id": 66955, "name": "HULIANWANG DIGUI-116", "group": "last-30-days", "lat": -62.26252072505352, "lon": 168.20733946194466, "alt_km": 1028.7781935948442, "timestamp": "2025-12-25T11:37:43.135451+00:00", "meta": {"OBJECT_NAME": "HULIANWANG DIGUI-116", "OBJECT_ID": "2025-287C", "EPOCH": "2025-12-24T23:52:55.515936", "MEAN_MOTION": 13.64194122, "ECCENTRICITY": 0.00016332, "INCLINATION": 86.4919, "RA_OF_ASC_NODE": 341.6856, "ARG_OF_PERICENTER": 94.3011, "MEAN_ANOMALY": 265.8333, "EPHEMERIS_TYPE": 0, "CLASSIFICATION_TYPE": "U", "NORAD_CAT_ID": 66955, "ELEMENT_SET_NO": 999, "REV_AT_EPOCH": 220, "BSTAR": 0.0001652864, "MEAN_MOTION_DOT": 1.48e-06, "MEAN_MOTION_DDOT": 0}, "tle": {"line1": "1 66955U 25287C   25358.99508699  .00000148  00000+0  16529-3 0  9991", "line2": "2 66955  86.4919 341.6856 0001633  94.3011 265.8333 13.64194122  2201"}}, "geometry": {"type": "Point", "coordinates": [168.20733946194466, -62.26252072505352]}}, {"type": "Feature", "properties": {"norad_id": 66956, "name": "HULIANWANG DIGUI-117", "group": "last-30-days", "lat": -67.14352814132127, "lon": -26.839194457213328, "alt_km": 1019.0132359961253, "timestamp": "2025-12-25T11:37:43.135461+00:00", "meta": {"OBJECT_NAME": "HULIANWANG DIGUI-117", "OBJECT_ID": "2025-287D", "EPOCH": "2025-12-18T14:55:12.079776", "MEAN_MOTION": 13.67770338, "ECCENTRICITY": 0.00076767, "INCLINATION": 86.4971, "RA_OF_ASC_NODE": 344.0126, "ARG_OF_PERICENTER": 176.3616, "MEAN_ANOMALY": 183.76, "EPHEMERIS_TYPE": 0, "CLASSIFICATION_TYPE": "U", "NORAD_CAT_ID": 66956, "ELEMENT_SET_NO": 999, "REV_AT_EPOCH": 133, "BSTAR": 1.0922436e-05, "MEAN_MOTION_DOT": 2.6e-07, "MEAN_MOTION_DDOT": 0}, "tle": {"line1": "1 66956U 25287D   25352.62166759  .00000026  00000+0  10922-4 0  9990", "line2": "2 66956  86.4971 344.0126 0007676 176.3616 183.7600 13.67770338  1332"}}, "geometry": {"type": "Point", "coordinates": [-26.839194457213328, -67.14352814132127]}}, {"type": "Feature", "properties": {"norad_id": 66957, "name": "HULIANWANG DIGUI-118", "group": "last-30-days", "lat": -66.86339639891632, "lon": -26.736239794569215, "alt_km": 1018.7013387276247, "timestamp": "2025-12-25T11:37:43.135471+00:00", "meta": {"OBJECT_NAME": "HULIANWANG DIGUI-118", "OBJECT_ID": "2025-287E", "EPOCH": "2025-12-21T00:50:13.849728", "MEAN_MOTION": 13.6751011, "ECCENTRICITY": 0.00054729, "INCLINATION": 86.4946, "RA_OF_ASC_NODE": 343.1304, "ARG_OF_PERICENTER": 170.9065, "MEAN_ANOMALY": 189.2194, "EPHEMERIS_TYPE": 0, "CLASSIFICATION_TYPE": "U", "NORAD_CAT_ID": 66957, "ELEMENT_SET_NO": 999, "REV_AT_EPOCH": 166, "BSTAR": 0.00013223305, "MEAN_MOTION_DOT": 1.28e-06, "MEAN_MOTION_DDOT": 0}, "tle": {"line1": "1 66957U 25287E   25355.03488252  .00000128  00000+0  13223-3 0  9993", "line2": "2 66957  86.4946 343.1304 0005472 170.9065 189.2194 13.67510110  1668"}}, "geometry": {"type": "Point", "coordinates": [-26.736239794569215, -66.86339639891632]}}, {"type": "Feature", "properties": {"norad_id": 66958, "name": "CZ-6A R/B", "group": "last-30-days", "lat": 67.33409902430229, "lon": -10.333104871476126, "alt_km": 827.0198677248709, "timestamp": "2025-12-25T11:37:43.135481+00:00", "meta": {"OBJECT_NAME": "CZ-6A R/B", "OBJECT_ID": "2025-287F", "EPOCH": "2025-12-24T21:32:19.967712", "MEAN_MOTION": 13.94921413, "ECCENTRICITY": 0.01071296, "INCLINATION": 86.5065, "RA_OF_ASC_NODE": 341.4787, "ARG_OF_PERICENTER": 65.6108, "MEAN_ANOMALY": 295.6201, "EPHEMERIS_TYPE": 0, "CLASSIFICATION_TYPE": "U", "NORAD_CAT_ID": 66958, "ELEMENT_SET_NO": 999, "REV_AT_EPOCH": 223, "BSTAR": 3.8656345e-05, "MEAN_MOTION_DOT": 7.3e-07, "MEAN_MOTION_DDOT": 0}, "tle": {"line1": "1 66958U 25287F   25358.89745333  .00000073  00000+0  38656-4 0  9994", "line2": "2 66958  86.5065 341.4787 0107129  65.6108 295.6201 13.94921413  2235"}}, "geometry": {"type": "Point", "coordinates": [-10.333104871476126, 67.33409902430229]}}]}